QIANFAN-35              
1 61568U 24185S   26063.46990137  .00001209  00000+0  48075-3 0  9990
2 61568  88.9744  67.2668 0007588  35.1106 325.0587 14.28116862 81847
QIANFAN-36              
1 61569U 24185T   26063.45158247  .00000135  00000+0  17677-3 0  9999
2 61569  88.9716  72.5169 0006908 149.3032 210.8527 13.55613491 78999
QIANFAN-37              
1 62238U 24232B   26063.46282289  .00000079  00000+0  10378-3 0  9999
2 62238  89.0050  33.0739 0001675  96.9082 263.2260 13.51005133110200
QIANFAN-38              
1 62239U 24232C   26063.41339712  .00000086  00000+0  11504-3 0  9999
2 62239  89.0056  33.0003 0013521 327.0120  33.0186 13.51003759110252
QIANFAN-39              
1 62240U 24232D   26063.41703766  .00000535  00000+0  22052-3 0  9994
2 62240  89.0055  27.9646 0016405 162.8273 197.3479 14.25435520113020
QIANFAN-40              
1 62241U 24232E   26063.44631191  .00000080  00000+0  10517-3 0  9998
2 62241  89.0084  32.6044 0012852 335.9711  24.0839 13.51002950110624
QIANFAN-41              
1 62242U 24232F   26063.45458453  .00000069  00000+0  88594-4 0  9996
2 62242  89.0054  32.9463 0012819 322.9976  37.0290 13.51004542110288
QIANFAN-42              
1 62243U 24232G   26063.46701735  .00000499  00000+0  20892-3 0  9995
2 62243  89.0053  28.0182 0015036 168.1288 192.0262 14.24529479113008
QIANFAN-43              
1 62244U 24232H   26063.45042829  .00000060  00000+0  75171-4 0  9992
2 62244  89.0059  33.0157 0014499 327.7852  32.2412 13.51004567 78899
QIANFAN-44              
1 62245U 24232J   26063.43809156  .00000067  00000+0  86090-4 0  9994
2 62245  89.0057  32.8263 0012642 325.6777  34.3556 13.51002582110360
QIANFAN-45              
1 62246U 24232K   26063.47926395  .00000075  00000+0  97829-4 0  9995
2 62246  89.0061  32.9715 0013278 324.7375  35.2896 13.51000289110290
QIANFAN-46              
1 62247U 24232L   26063.42984881  .00000079  00000+0  10452-3 0  9995
2 62247  89.0057  33.0421 0013515 330.7601  29.2792 13.51003192110244
QIANFAN-47              
1 62248U 24232M   26063.43396048  .00000062  00000+0  76983-4 0  9993
2 62248  89.0053  32.9714 0013918 329.6013  30.4330 13.51003058110271
QIANFAN-48              
1 62249U 24232N   26063.47100041  .00000071  00000+0  92282-4 0  9994
2 62249  89.0057  32.9728 0016246 331.1936  28.8316 13.51003259110289
QIANFAN-49              
1 62250U 24232P   26063.45865949  .00000092  00000+0  12412-3 0  9998
2 62250  89.0055  32.9860 0013157 326.8755  33.1571 13.51002427 78870
QIANFAN-50              
1 62251U 24232Q   26063.40927276  .00000072  00000+0  93797-4 0  9990
2 62251  89.0061  33.0034 0014849 327.6452  32.3787 13.51003324 78894
QIANFAN-51              
1 62252U 24232R   26063.46690998  .00000073  00000+0  95233-4 0  9993
2 62252  89.0055  32.9865 0012484 332.7875  27.2620 13.51004115 78895
