[{"OBJECT_NAME":"QIANFAN-35","OBJECT_ID":"2024-185S","EPOCH":"2026-03-04T11:16:39.478368","MEAN_MOTION":14.28116862,"ECCENTRICITY":0.0007588,"INCLINATION":88.9744,"RA_OF_ASC_NODE":67.2668,"ARG_OF_PERICENTER":35.1106,"MEAN_ANOMALY":325.0587,"EPHEMERIS_TYPE":0,"CLASSIFICATION_TYPE":"U","NORAD_CAT_ID":61568,"ELEMENT_SET_NO":999,"REV_AT_EPOCH":8184,"BSTAR":0.00048075,"MEAN_MOTION_DOT":1.209e-5,"MEAN_MOTION_DDOT":0},{"OBJECT_NAME":"QIANFAN-36","OBJECT_ID":"2024-185T","EPOCH":"2026-03-04T10:50:16.725408","MEAN_MOTION":13.55613491,"ECCENTRICITY":0.0006908,"INCLINATION":88.9716,"RA_OF_ASC_NODE":72.5169,"ARG_OF_PERICENTER":149.3032,"MEAN_ANOMALY":210.8527,"EPHEMERIS_TYPE":0,"CLASSIFICATION_TYPE":"U","NORAD_CAT_ID":61569,"ELEMENT_SET_NO":999,"REV_AT_EPOCH":7899,"BSTAR":0.00017677,"MEAN_MOTION_DOT":1.35e-6,"MEAN_MOTION_DDOT":0},{"OBJECT_NAME":"QIANFAN-37","OBJECT_ID":"2024-232B","EPOCH":"2026-03-04T11:06:27.897696","MEAN_MOTION":13.51005133,"ECCENTRICITY":0.0001675,"INCLINATION":89.005,"RA_OF_ASC_NODE":33.0739,"ARG_OF_PERICENTER":96.9082,"MEAN_ANOMALY":263.226,"EPHEMERIS_TYPE":0,"CLASSIFICATION_TYPE":"U","NORAD_CAT_ID":62238,"ELEMENT_SET_NO":999,"REV_AT_EPOCH":11020,"BSTAR":0.00010378,"MEAN_MOTION_DOT":7.9e-7,"MEAN_MOTION_DDOT":0},{"OBJECT_NAME":"QIANFAN-38","OBJECT_ID":"2024-232C","EPOCH":"2026-03-04T09:55:17.511168","MEAN_MOTION":13.51003759,"ECCENTRICITY":0.0013521,"INCLINATION":89.0056,"RA_OF_ASC_NODE":33.0003,"ARG_OF_PERICENTER":327.012,"MEAN_ANOMALY":33.0186,"EPHEMERIS_TYPE":0,"CLASSIFICATION_TYPE":"U","NORAD_CAT_ID":62239,"ELEMENT_SET_NO":999,"REV_AT_EPOCH":11025,"BSTAR":0.00011504,"MEAN_MOTION_DOT":8.6e-7,"MEAN_MOTION_DDOT":0},{"OBJECT_NAME":"QIANFAN-39","OBJECT_ID":"2024-232D","EPOCH":"2026-03-04T10:00:32.053824","MEAN_MOTION":14.2543552,"ECCENTRICITY":0.0016405,"INCLINATION":89.0055,"RA_OF_ASC_NODE":27.9646,"ARG_OF_PERICENTER":162.8273,"MEAN_ANOMALY":197.3479,"EPHEMERIS_TYPE":0,"CLASSIFICATION_TYPE":"U","NORAD_CAT_ID":62240,"ELEMENT_SET_NO":999,"REV_AT_EPOCH":11302,"BSTAR":0.00022052,"MEAN_MOTION_DOT":5.35e-6,"MEAN_MOTION_DDOT":0},{"OBJECT_NAME":"QIANFAN-40","OBJECT_ID":"2024-232E","EPOCH":"2026-03-04T10:42:41.349024","MEAN_MOTION":13.5100295,"ECCENTRICITY":0.0012852,"INCLINATION":89.0084,"RA_OF_ASC_NODE":32.6044,"ARG_OF_PERICENTER":335.9711,"MEAN_ANOMALY":24.0839,"EPHEMERIS_TYPE":0,"CLASSIFICATION_TYPE":"U","NORAD_CAT_ID":62241,"ELEMENT_SET_NO":999,"REV_AT_EPOCH":11062,"BSTAR":0.00010517,"MEAN_MOTION_DOT":8.0e-7,"MEAN_MOTION_DDOT":0},{"OBJECT_NAME":"QIANFAN-41","OBJECT_ID":"2024-232F","EPOCH":"2026-03-04T10:54:36.103392","MEAN_MOTION":13.51004542,"ECCENTRICITY":0.0012819,"INCLINATION":89.0054,"RA_OF_ASC_NODE":32.9463,"ARG_OF_PERICENTER":322.9976,"MEAN_ANOMALY":37.029,"EPHEMERIS_TYPE":0,"CLASSIFICATION_TYPE":"U","NORAD_CAT_ID":62242,"ELEMENT_SET_NO":999,"REV_AT_EPOCH":11028,"BSTAR":8.8594e-5,"MEAN_MOTION_DOT":6.9e-7,"MEAN_MOTION_DDOT":0},{"OBJECT_NAME":"QIANFAN-42","OBJECT_ID":"2024-232G","EPOCH":"2026-03-04T11:12:30.299040","MEAN_MOTION":14.24529479,"ECCENTRICITY":0.0015036,"INCLINATION":89.0053,"RA_OF_ASC_NODE":28.0182,"ARG_OF_PERICENTER":168.1288,"MEAN_ANOMALY":192.0262,"EPHEMERIS_TYPE":0,"CLASSIFICATION_TYPE":"U","NORAD_CAT_ID":62243,"ELEMENT_SET_NO":999,"REV_AT_EPOCH":11300,"BSTAR":0.00020892,"MEAN_MOTION_DOT":4.99e-6,"MEAN_MOTION_DDOT":0},{"OBJECT_NAME":"QIANFAN-43","OBJECT_ID":"2024-232H","EPOCH":"2026-03-04T10:48:37.004256","MEAN_MOTION":13.51004567,"ECCENTRICITY":0.0014499,"INCLINATION":89.0059,"RA_OF_ASC_NODE":33.0157,"ARG_OF_PERICENTER":327.7852,"MEAN_ANOMALY":32.2412,"EPHEMERIS_TYPE":0,"CLASSIFICATION_TYPE":"U","NORAD_CAT_ID":62244,"ELEMENT_SET_NO":999,"REV_AT_EPOCH":7889,"BSTAR":7.5171e-5,"MEAN_MOTION_DOT":6.0e-7,"MEAN_MOTION_DDOT":0},{"OBJECT_NAME":"QIANFAN-44","OBJECT_ID":"2024-232J","EPOCH":"2026-03-04T10:30:51.110784","MEAN_MOTION":13.51002582,"ECCENTRICITY":0.0012642,"INCLINATION":89.0057,"RA_OF_ASC_NODE":32.8263,"ARG_OF_PERICENTER":325.6777,"MEAN_ANOMALY":34.3556,"EPHEMERIS_TYPE":0,"CLASSIFICATION_TYPE":"U","NORAD_CAT_ID":62245,"ELEMENT_SET_NO":999,"REV_AT_EPOCH":11036,"BSTAR":8.609e-5,"MEAN_MOTION_DOT":6.7e-7,"MEAN_MOTION_DDOT":0},{"OBJECT_NAME":"QIANFAN-45","OBJECT_ID":"2024-232K","EPOCH":"2026-03-04T11:30:08.405280","MEAN_MOTION":13.51000289,"ECCENTRICITY":0.0013278,"INCLINATION":89.0061,"RA_OF_ASC_NODE":32.9715,"ARG_OF_PERICENTER":324.7375,"MEAN_ANOMALY":35.2896,"EPHEMERIS_TYPE":0,"CLASSIFICATION_TYPE":"U","NORAD_CAT_ID":62246,"ELEMENT_SET_NO":999,"REV_AT_EPOCH":11029,"BSTAR":9.7829e-5,"MEAN_MOTION_DOT":7.5e-7,"MEAN_MOTION_DDOT":0},{"OBJECT_NAME":"QIANFAN-46","OBJECT_ID":"2024-232L","EPOCH":"2026-03-04T10:18:58.937184","MEAN_MOTION":13.51003192,"ECCENTRICITY":0.0013515,"INCLINATION":89.0057,"RA_OF_ASC_NODE":33.0421,"ARG_OF_PERICENTER":330.7601,"MEAN_ANOMALY":29.2792,"EPHEMERIS_TYPE":0,"CLASSIFICATION_TYPE":"U","NORAD_CAT_ID":62247,"ELEMENT_SET_NO":999,"REV_AT_EPOCH":11024,"BSTAR":0.00010452,"MEAN_MOTION_DOT":7.9e-7,"MEAN_MOTION_DDOT":0},{"OBJECT_NAME":"QIANFAN-47","OBJECT_ID":"2024-232M","EPOCH":"2026-03-04T10:24:54.185472","MEAN_MOTION":13.51003058,"ECCENTRICITY":0.0013918,"INCLINATION":89.0053,"RA_OF_ASC_NODE":32.9714,"ARG_OF_PERICENTER":329.6013,"MEAN_ANOMALY":30.433,"EPHEMERIS_TYPE":0,"CLASSIFICATION_TYPE":"U","NORAD_CAT_ID":62248,"ELEMENT_SET_NO":999,"REV_AT_EPOCH":11027,"BSTAR":7.6983e-5,"MEAN_MOTION_DOT":6.2e-7,"MEAN_MOTION_DDOT":0},{"OBJECT_NAME":"QIANFAN-48","OBJECT_ID":"2024-232N","EPOCH":"2026-03-04T11:18:14.435424","MEAN_MOTION":13.51003259,"ECCENTRICITY":0.0016246,"INCLINATION":89.0057,"RA_OF_ASC_NODE":32.9728,"ARG_OF_PERICENTER":331.1936,"MEAN_ANOMALY":28.8316,"EPHEMERIS_TYPE":0,"CLASSIFICATION_TYPE":"U","NORAD_CAT_ID":62249,"ELEMENT_SET_NO":999,"REV_AT_EPOCH":11028,"BSTAR":9.2282e-5,"MEAN_MOTION_DOT":7.1e-7,"MEAN_MOTION_DDOT":0},{"OBJECT_NAME":"QIANFAN-49","OBJECT_ID":"2024-232P","EPOCH":"2026-03-04T11:00:28.179936","MEAN_MOTION":13.51002427,"ECCENTRICITY":0.0013157,"INCLINATION":89.0055,"RA_OF_ASC_NODE":32.986,"ARG_OF_PERICENTER":326.8755,"MEAN_ANOMALY":33.1571,"EPHEMERIS_TYPE":0,"CLASSIFICATION_TYPE":"U","NORAD_CAT_ID":62250,"ELEMENT_SET_NO":999,"REV_AT_EPOCH":7887,"BSTAR":0.00012412,"MEAN_MOTION_DOT":9.2e-7,"MEAN_MOTION_DDOT":0},{"OBJECT_NAME":"QIANFAN-50","OBJECT_ID":"2024-232Q","EPOCH":"2026-03-04T09:49:21.166464","MEAN_MOTION":13.51003324,"ECCENTRICITY":0.0014849,"INCLINATION":89.0061,"RA_OF_ASC_NODE":33.0034,"ARG_OF_PERICENTER":327.6452,"MEAN_ANOMALY":32.3787,"EPHEMERIS_TYPE":0,"CLASSIFICATION_TYPE":"U","NORAD_CAT_ID":62251,"ELEMENT_SET_NO":999,"REV_AT_EPOCH":7889,"BSTAR":9.3797e-5,"MEAN_MOTION_DOT":7.2e-7,"MEAN_MOTION_DDOT":0},{"OBJECT_NAME":"QIANFAN-51","OBJECT_ID":"2024-232R","EPOCH":"2026-03-04T11:12:21.022272","MEAN_MOTION":13.51004115,"ECCENTRICITY":0.0012484,"INCLINATION":89.0055,"RA_OF_ASC_NODE":32.9865,"ARG_OF_PERICENTER":332.7875,"MEAN_ANOMALY":27.262,"EPHEMERIS_TYPE":0,"CLASSIFICATION_TYPE":"U","NORAD_CAT_ID":62252,"ELEMENT_SET_NO":999,"REV_AT_EPOCH":7889,"BSTAR":9.5233e-5,"MEAN_MOTION_DOT":7.3e-7,"MEAN_MOTION_DDOT":0}]
